stk.v.11.0

# WrittenBy    STK_v11.2.0

BEGIN Ephemeris

NumberOfEphemerisPoints 23079

ScenarioEpoch            1 Oct 1980 23:41:24.114000

# Epoch in JDate format: 2444514.48708465277778
# Epoch in YYDDD format:   80275.98708465277778


InterpolationMethod     Lagrange

InterpolationSamplesM1      5

CentralBody             Earth

CoordinateSystem        Fixed 

# Time of first point: 1 Oct 1980 23:41:24.114000000 UTCG = 2444514.48708465277778 JDate = 80275.98708465277778 YYDDD

EphemerisTimePosVel

5.60220000000000e+05 -1.07217856673037e+06 6.07691774468735e+06 -2.59246638014356e+06 -1.49017822033377e+03 -3.10815691401687e+03 -6.72004903692524e+03
5.60250000000000e+05 -1.11644367010522e+06 5.98016942107048e+06 -2.79247130237677e+06 -1.46081264346854e+03 -3.34121556686345e+03 -6.61232474353575e+03
5.60280000000000e+05 -1.15981715407443e+06 5.87648801163306e+06 -2.98912600318667e+06 -1.43073623469333e+03 -3.57032438475064e+03 -6.49671340160985e+03
5.60310000000000e+05 -1.20227797417502e+06 5.76599591618705e+06 -3.18219598972095e+06 -1.39996727030601e+03 -3.79522256198500e+03 -6.37335724447329e+03
5.60340000000000e+05 -1.24380562575818e+06 5.64882328094702e+06 -3.37145116073040e+06 -1.36852350759172e+03 -4.01565446054557e+03 -6.24240693466095e+03
5.60370000000000e+05 -1.28438012838544e+06 5.52510784018651e+06 -3.55666605635737e+06 -1.33642218471623e+03 -4.23136985040823e+03 -6.10402136219879e+03
5.60400000000000e+05 -1.32398201026560e+06 5.39499475083256e+06 -3.73762010182604e+06 -1.30368002308564e+03 -4.44212414099974e+03 -5.95836743781739e+03
5.60430000000000e+05 -1.36259229281203e+06 5.25863642024494e+06 -3.91409784491064e+06 -1.27031323216661e+03 -4.64767860386230e+03 -5.80561988159801e+03
5.60460000000000e+05 -1.40019247539036e+06 5.11619232744438e+06 -4.08588918703999e+06 -1.23633751676225e+03 -4.84780058661090e+03 -5.64596100755421e+03
5.60490000000000e+05 -1.43676452032947e+06 4.96782883804608e+06 -4.25278960792061e+06 -1.20176808673139e+03 -5.04226371831494e+03 -5.47958050462451e+03
5.60520000000000e+05 -1.47229083826843e+06 4.81371901314850e+06 -4.41460038357673e+06 -1.16661966913227e+03 -5.23084810647487e+03 -5.30667521452388e+03
5.60550000000000e+05 -1.50675427391945e+06 4.65404241239372e+06 -4.57112879774509e+06 -1.13090652275737e+03 -5.41334052582861e+03 -5.12744890684026e+03
5.60580000000000e+05 -1.54013809229984e+06 4.48898489149528e+06 -4.72218834648386e+06 -1.09464245504532e+03 -5.58953459914710e+03 -4.94211205182585e+03
5.60610000000000e+05 -1.57242596552145e+06 4.31873839440400e+06 -4.86759893599209e+06 -1.05784084131420e+03 -5.75923097035354e+03 -4.75088159116708e+03
5.60640000000000e+05 -1.60360196019520e+06 4.14350074036907e+06 -5.00718707354356e+06 -1.02051464628230e+03 -5.92223747020450e+03 -4.55398070708400e+03
5.60670000000000e+05 -1.63365052552065e+06 3.96347540610059e+06 -5.14078605149465e+06 -9.82676447822871e+02 -6.07836927484614e+03 -4.35163859002342e+03
5.60700000000000e+05 -1.66255648212526e+06 3.77887130324129e+06 -5.26823612432137e+06 -9.44338462896124e+02 -6.22744905756110e+03 -4.14409020518065e+03
5.60730000000000e+05 -1.69030501171729e+06 3.58990255134309e+06 -5.38938467864979e+06 -9.05512575593911e+02 -6.36930713403708e+03 -3.93157605803844e+03
5.60760000000000e+05 -1.71688164761357e+06 3.39678824653516e+06 -5.50408639624789e+06 -8.66210367226077e+02 -6.50378160149413e+03 -3.71434195906921e+03
5.60790000000000e+05 -1.74227226620016e+06 3.19975222606817e+06 -5.61220340994611e+06 -8.26443148372621e+02 -6.63071847200664e+03 -3.49263878771009e+03
5.60820000000000e+05 -1.76646307938345e+06 2.99902282889888e+06 -5.71360545246384e+06 -7.86221992816008e+02 -6.74997180036314e+03 -3.26672225566438e+03
5.60850000000000e+05 -1.78944062808624e+06 2.79483265247061e+06 -5.80816999811815e+06 -7.45557773261354e+02 -6.86140380679995e+03 -3.03685266953874e+03
5.60880000000000e+05 -1.81119177683732e+06 2.58741830585709e+06 -5.89578239738115e+06 -7.04461198751164e+02 -6.96488499492276e+03 -2.80329469280548e+03
5.60910000000000e+05 -1.83170370950623e+06 2.37702015938868e+06 -5.97633600427078e+06 -6.62942853663626e+02 -7.06029426513957e+03 -2.56631710699229e+03
5.60940000000000e+05 -1.85096392622561e+06 2.16388209091117e+06 -6.04973229653778e+06 -6.21013238187580e+02 -7.14751902388628e+03 -2.32619257200361e+03
5.60970000000000e+05 -1.86896024154343e+06 1.94825122879818e+06 -6.11588098861853e+06 -5.78682810154684e+02 -7.22645528891623e+03 -2.08319738541506e+03
5.61000000000000e+05 -1.88568078384369e+06 1.73037769183217e+06 -6.17470013731812e+06 -5.35962028102953e+02 -7.29700779089643e+03 -1.83761124054459e+03
5.61030000000000e+05 -1.90111399606877e+06 1.51051432607482e+06 -6.22611624017766e+06 -4.92861395442741e+02 -7.35909007151705e+03 -1.58971698308342e+03
5.61060000000000e+05 -1.91524863777580e+06 1.28891643881401e+06 -6.27006432648136e+06 -4.49391505582103e+02 -7.41262457829529e+03 -1.33980036600539e+03
5.61090000000000e+05 -1.92807378855016e+06 1.06584152972326e+06 -6.30648804083799e+06 -4.05563087876555e+02 -7.45754275619975e+03 -1.08814980250374e+03
5.61120000000000e+05 -1.93957885280144e+06 8.41549019295623e+05 -6.33533971927997e+06 -3.61387054243342e+02 -7.49378513620010e+03 -8.35056116600552e+02
5.61150000000000e+05 -1.94975356595681e+06 6.16299974681453e+05 -6.35658045779899e+06 -3.16874546293077e+02 -7.52130142078290e+03 -5.80812291130150e+02
5.61180000000000e+05 -1.95858800206683e+06 3.90356832993776e+05 -6.37018017323900e+06 -2.72036982808698e+02 -7.54005056644061e+03 -3.25713212708772e+02
5.61210000000000e+05 -1.96607258282964e+06 1.63983122215422e+05 -6.37611765644787e+06 -2.26886107415152e+02 -7.55000086307876e+03 -7.00554133683981e+01
5.61240000000000e+05 -1.97219808803864e+06 -6.25568202220462e+04 -6.37438061758738e+06 -1.81434036260649e+02 -7.55113001024460e+03 1.85863191547966e+02
5.61270000000000e+05 -1.97695566745105e+06 -2.88998131079883e+05 -6.36496572348457e+06 -1.35693305534855e+02 -7.54342519001944e+03 4.41743569596086e+02
5.61300000000000e+05 -1.98033685406994e+06 -5.15075707054571e+05 -6.34787862689927e+06 -8.96769186473445e+01 -7.52688313636443e+03 6.97285841900861e+02
5.61330000000000e+05 -1.98233357882795e+06 -7.40524492511919e+05 -6.32313398757317e+06 -4.33983928812117e+01 -7.50151020065530e+03 9.52189558652293e+02
5.61360000000000e+05 -1.98293818665468e+06 -9.65079769104558e+05 -6.29075548491317e+06 3.12819466859250e+00 -7.46732241308317e+03 1.20615397978720e+03
5.61390000000000e+05 -1.98214345390422e+06 -1.18847744711570e+06 -6.25077582215537e+06 4.98881620547276e+01 -7.42434553954671e+03 1.45887836115272e+03
5.61420000000000e+05 -1.97994260711421e+06 -1.41045435840473e+06 -6.20323672184431e+06 9.68661785309519e+01 -7.37261513360435e+03 1.71006224646969e+03
5.61450000000000e+05 -1.97632934306153e+06 -1.63074855078896e+06 -6.14818891245556e+06 1.44046221889509e+02 -7.31217658300413e+03 1.95940576535001e+03
5.61480000000000e+05 -1.97129785007431e+06 -1.84909958369528e+06 -6.08569210598123e+06 1.91411537276512e+02 -7.24308515025704e+03 2.20660993759881e+03
5.61510000000000e+05 -1.96484283055452e+06 -2.06524882488724e+06 -6.01581496629435e+06 2.38944597675653e+02 -7.16540600667525e+03 2.45137698397473e+03
5.61540000000000e+05 -1.95695952465894e+06 -2.27893974806888e+06 -5.93863506810055e+06 2.86627066253279e+02 -7.07921425924900e+03 2.69341064354608e+03
5.61570000000000e+05 -1.94764373508103e+06 -2.48991823114639e+06 -5.85423884628160e+06 3.34439760755381e+02 -6.98459496969474e+03 2.93241649772379e+03
5.61600000000000e+05 -1.93689185287130e+06 -2.69793285488623e+06 -5.76272153544166e+06 3.82362620137727e+02 -6.88164316498096e+03 3.16810230096717e+03
5.61630000000000e+05 -1.92470088422589e+06 -2.90273520173576e+06 -5.66418709945057e+06 4.30374673620529e+02 -6.77046383858761e+03 3.40017831814678e+03
5.61660000000000e+05 -1.91106847817160e+06 -3.10408015448404e+06 -5.55874815080543e+06 4.78454012334769e+02 -6.65117194175878e+03 3.62835766840623e+03
5.61690000000000e+05 -1.89599295506435e+06 -3.30172619449959e+06 -5.44652585960164e+06 5.26577763745952e+02 -6.52389236394964e+03 3.85235667538222e+03
5.61720000000000e+05 -1.87947333582121e+06 -3.49543569916045e+06 -5.32764985195670e+06 5.74722069004476e+02 -6.38875990170841e+03 4.07189522345719e+03
5.61750000000000e+05 -1.86150937179023e+06 -3.68497523818422e+06 -5.20225809768004e+06 6.22862063399566e+02 -6.24591921516151e+03 4.28669711976840e+03
5.61780000000000e+05 -1.84210157517003e+06 -3.87011586841987e+06 -5.07049678705810e+06 6.70971860047270e+02 -6.09552477134595e+03 4.49649046148140e+03
5.61810000000000e+05 -1.82125124987572e+06 -4.05063342674370e+06 -4.93252019658055e+06 7.19024536965461e+02 -5.93774077357692e+03 4.70100800786855e+03
5.61840000000000e+05 -1.79896052274927e+06 -4.22630882062005e+06 -4.78849054347968e+06 7.66992127660003e+02 -5.77274107609067e+03 4.89998755658655e+03
5.61870000000000e+05 -1.77523237500935e+06 -4.39692831587011e+06 -4.63857782897471e+06 8.14845615335964e+02 -5.60070908322911e+03 5.09317232346963e+03
5.61900000000000e+05 -1.75007067382673e+06 -4.56228382120136e+06 -4.48295967010855e+06 8.62554930845341e+02 -5.42183763243697e+03 5.28031132510853e+03
5.61930000000000e+05 -1.72348020391616e+06 -4.72217316898228e+06 -4.32182112012457e+06 9.10088954453679e+02 -5.23632886042590e+03 5.46115976335327e+03
5.61960000000000e+05 -1.69546669902208e+06 -4.87640039178505e+06 -4.15535447730683e+06 9.57415521513444e+02 -5.04439405185208e+03 5.63547941086409e+03
5.61990000000000e+05 -1.66603687318795e+06 -5.02477599412967e+06 -3.98375908230005e+06 1.00450143209188e+03 -4.84625346998551e+03 5.80303899668264e+03
5.62020000000000e+05 -1.63519845168172e+06 -5.16711721891828e+06 -3.80724110388793e+06 1.05131246461075e+03 -4.64213616883664e+03 5.96361459080495e+03
5.62050000000000e+05 -1.60296020145994e+06 -5.30324830798268e+06 -3.62601331328967e+06 1.09781339352081e+03 -4.43227978633412e+03 6.11698998661573e+03
END Ephemeris
